$$SOE
2460147.500000000, A.D. 2023-Jul-22 00:00:00.0000, -2.777325065467624E+07, -4.851818964965770E+08, 8.015078029952991E+07,
2460154.500000000, A.D. 2023-Jul-29 00:00:00.0000, -1.794189419409739E+07, -4.857980713763881E+08, 8.069026206645153E+07,
2460161.500000000, A.D. 2023-Aug-05 00:00:00.0000, -8.103311324636044E+06, -4.862171718964586E+08, 8.119700897158162E+07,
2460168.500000000, A.D. 2023-Aug-12 00:00:00.0000, 1.738499533397689E+06, -4.864393133246377E+08, 8.167086294662754E+07,
2460175.500000000, A.D. 2023-Aug-19 00:00:00.0000, 1.157955041138186E+07, -4.864646877966075E+08, 8.211167915596743E+07,
2460182.500000000, A.D. 2023-Aug-26 00:00:00.0000, 2.141586517992526E+07, -4.862935637090642E+08, 8.251932597678784E+07,
2460189.500000000, A.D. 2023-Sep-02 00:00:00.0000, 3.124348089225131E+07, -4.859262851666410E+08, 8.289368497088072E+07,
2460196.500000000, A.D. 2023-Sep-09 00:00:00.0000, 4.105844911998432E+07, -4.853632715242695E+08, 8.323465084144747E+07,
2460203.500000000, A.D. 2023-Sep-16 00:00:00.0000, 5.085683744985565E+07, -4.846050170836831E+08, 8.354213135490441E+07,
2460210.500000000, A.D. 2023-Sep-23 00:00:00.0000, 6.063473155775362E+07, -4.836520906581310E+08, 8.381604721320699E+07,
2460217.500000000, A.D. 2023-Sep-30 00:00:00.0000, 7.038823752036370E+07, -4.825051338153241E+08, 8.405633200540547E+07,
2460224.500000000, A.D. 2023-Oct-07 00:00:00.0000, 8.011348201037891E+07, -4.811648583415204E+08, 8.426293240999803E+07,
2460231.500000000, A.D. 2023-Oct-14 00:00:00.0000, 8.980661141545540E+07, -4.796320462395024E+08, 8.443580828179479E+07,
2460238.500000000, A.D. 2023-Oct-21 00:00:00.0000, 9.946379311034647E+07, -4.779075506582267E+08, 8.457493245834236E+07,
2460245.500000000, A.D. 2023-Oct-28 00:00:00.0000, 1.090812174583152E+08, -4.759922954952794E+08, 8.468029060182592E+07,
2460252.500000000, A.D. 2023-Nov-04 00:00:00.0000, 1.186550992918581E+08, -4.738872744434350E+08, 8.475188112864354E+07,
2460259.500000000, A.D. 2023-Nov-11 00:00:00.0000, 1.281816790503362E+08, -4.715935500817722E+08, 8.478971516172479E+07,
2460266.500000000, A.D. 2023-Nov-18 00:00:00.0000, 1.376572237940509E+08, -4.691122530761048E+08, 8.479381648052092E+07,
2460273.500000000, A.D. 2023-Nov-25 00:00:00.0000, 1.470780281676429E+08, -4.664445814664608E+08, 8.476422146403599E+07,
2460280.500000000, A.D. 2023-Dec-02 00:00:00.0000, 1.564404153412211E+08, -4.635918000529653E+08, 8.470097902350287E+07,
2460287.500000000, A.D. 2023-Dec-09 00:00:00.0000, 1.657407380075631E+08, -4.605552399392929E+08, 8.460415051286344E+07,
2460294.500000000, A.D. 2023-Dec-16 00:00:00.0000, 1.749753797236020E+08, -4.573362982217752E+08, 8.447380959194796E+07,
2460301.500000000, A.D. 2023-Dec-23 00:00:00.0000, 1.841407569451361E+08, -4.539364371377833E+08, 8.431004206689736E+07,
2460308.500000000, A.D. 2023-Dec-30 00:00:00.0000, 1.932333204145198E+08, -4.503571816251238E+08, 8.411294591667926E+07,
2460315.500000000, A.D. 2024-Jan-06 00:00:00.0000, 2.022495541285248E+08, -4.466001176532177E+08, 8.388263147505358E+07,
2460322.500000000, A.D. 2024-Jan-13 00:00:00.0000, 2.111859750593827E+08, -4.426668931324077E+08, 8.361922132879597E+07,
2460329.500000000, A.D. 2024-Jan-20 00:00:00.0000, 2.200391348535094E+08, -4.385592183171425E+08, 8.332285007189934E+07,
2460336.500000000, A.D. 2024-Jan-27 00:00:00.0000, 2.288056214798615E+08, -4.342788650517667E+08, 8.299366415522166E+07,
2460343.500000000, A.D. 2024-Feb-03 00:00:00.0000, 2.374820603999414E+08, -4.298276658082226E+08, 8.263182179334736E+07,
2460350.500000000, A.D. 2024-Feb-10 00:00:00.0000, 2.460651155371657E+08, -4.252075128073288E+08, 8.223749287939906E+07,
2460357.500000000, A.D. 2024-Feb-17 00:00:00.0000, 2.545514901845758E+08, -4.204203572162699E+08, 8.181085889571971E+07,
2460364.500000000, A.D. 2024-Feb-24 00:00:00.0000, 2.629379278868990E+08, -4.154682084080070E+08, 8.135211281829511E+07,
2460371.500000000, A.D. 2024-Mar-02 00:00:00.0000, 2.712212133261524E+08, -4.103531333153694E+08, 8.086145900941962E+07,
2460378.500000000, A.D. 2024-Mar-09 00:00:00.0000, 2.793981733494165E+08, -4.050772559425942E+08, 8.033911308049680E+07,
2460385.500000000, A.D. 2024-Mar-16 00:00:00.0000, 2.874656785340822E+08, -3.996427568368665E+08, 7.978530170464960E+07,
2460392.500000000, A.D. 2024-Mar-23 00:00:00.0000, 2.954206451870987E+08, -3.940518714108142E+08, 7.920026247917899E+07,
2460399.500000000, A.D. 2024-Mar-30 00:00:00.0000, 3.032600355369865E+08, -3.883068871425983E+08, 7.858424404104933E+07,
2460406.500000000, A.D. 2024-Apr-06 00:00:00.0000, 3.109808563746223E+08, -3.824101430201840E+08, 7.793750613624918E+07,
2460413.500000000, A.D. 2024-Apr-13 00:00:00.0000, 3.185801596950493E+08, -3.763640303923720E+08, 7.726031938552266E+07,
2460420.500000000, A.D. 2024-Apr-20 00:00:00.0000, 3.260550443899514E+08, -3.701709925505245E+08, 7.655296505309254E+07,
2460427.500000000, A.D. 2024-Apr-27 00:00:00.0000, 3.334026574748661E+08, -3.638335236037338E+08, 7.581573491232102E+07,
2460434.500000000, A.D. 2024-May-04 00:00:00.0000, 3.406201949393658E+08, -3.573541673518111E+08, 7.504893114319767E+07,
2460441.500000000, A.D. 2024-May-11 00:00:00.0000, 3.477049024585173E+08, -3.507355162583125E+08, 7.425286623170240E+07,
2460448.500000000, A.D. 2024-May-18 00:00:00.0000, 3.546540760474705E+08, -3.439802105019552E+08, 7.342786286541073E+07,
2460455.500000000, A.D. 2024-May-25 00:00:00.0000, 3.614650626836851E+08, -3.370909371132208E+08, 7.257425382254305E+07,
2460462.500000000, A.D. 2024-Jun-01 00:00:00.0000, 3.681352609563783E+08, -3.300704292529027E+08, 7.169238184424785E+07,
2460469.500000000, A.D. 2024-Jun-08 00:00:00.0000, 3.746621219895293E+08, -3.229214656545469E+08, 7.078259946563956E+07,
2460476.500000000, A.D. 2024-Jun-15 00:00:00.0000, 3.810431510386409E+08, -3.156468696848778E+08, 6.984526881377047E+07,
2460483.500000000, A.D. 2024-Jun-22 00:00:00.0000, 3.872759087571468E+08, -3.082495068472519E+08, 6.888076156141458E+07,
2460490.500000000, A.D. 2024-Jun-29 00:00:00.0000, 3.933580100110616E+08, -3.007322825496281E+08, 6.788945908290952E+07,
2460497.500000000, A.D. 2024-Jul-06 00:00:00.0000, 3.992871228860990E+08, -2.930981426077091E+08, 6.687175236737697E+07,
2460504.500000000, A.D. 2024-Jul-13 00:00:00.0000, 4.050609698364825E+08, -2.853500736581615E+08, 6.582804174123585E+07,
2460511.500000000, A.D. 2024-Jul-20 00:00:00.0000, 4.106773289904809E+08, -2.774911023330562E+08, 6.475873667622454E+07,
2460518.500000000, A.D. 2024-Jul-27 00:00:00.0000, 4.161340349571183E+08, -2.695242941551951E+08, 6.366425566482679E+07,
2460525.500000000, A.D. 2024-Aug-03 00:00:00.0000, 4.214289794071247E+08, -2.614527525293341E+08, 6.254502610737592E+07,
2460532.500000000, A.D. 2024-Aug-10 00:00:00.0000, 4.265601115938842E+08, -2.532796178336203E+08, 6.140148419508993E+07,
2460539.500000000, A.D. 2024-Aug-17 00:00:00.0000, 4.315254388615811E+08, -2.450080665892278E+08, 6.023407478620161E+07,
2460546.500000000, A.D. 2024-Aug-24 00:00:00.0000, 4.363230271680430E+08, -2.366413107300026E+08, 5.904325127042959E+07,
2460553.500000000, A.D. 2024-Aug-31 00:00:00.0000, 4.409510017372852E+08, -2.281825970328346E+08, 5.782947540564190E+07,
2460560.500000000, A.D. 2024-Sep-07 00:00:00.0000, 4.454075482066814E+08, -2.196352065810122E+08, 5.659321710295089E+07,
2460567.500000000, A.D. 2024-Sep-14 00:00:00.0000, 4.496909143544776E+08, -2.110024532631634E+08, 5.533495423358384E+07,
2460574.500000000, A.D. 2024-Sep-21 00:00:00.0000, 4.537994103804125E+08, -2.022876808949002E+08, 5.405517267758260E+07,
2460581.500000000, A.D. 2024-Sep-28 00:00:00.0000, 4.577314072526116E+08, -1.934942621914600E+08, 5.275436639532269E+07,
2460588.500000000, A.D. 2024-Oct-05 00:00:00.0000, 4.614853367898499E+08, -1.846255995892803E+08, 5.143303718502376E+07,
2460595.500000000, A.D. 2024-Oct-12 00:00:00.0000, 4.650596931187559E+08, -1.756851249355858E+08, 5.009169440275201E+07,
2460602.500000000, A.D. 2024-Oct-19 00:00:00.0000, 4.684530337558855E+08, -1.666762983166657E+08, 4.873085478354094E+07,
2460609.500000000, A.D. 2024-Oct-26 00:00:00.0000, 4.716639802829029E+08, -1.576026068263849E+08, 4.735104230123556E+07,
2460616.500000000, A.D. 2024-Nov-02 00:00:00.0000, 4.746912188725252E+08, -1.484675634234146E+08, 4.595278803138165E+07,
2460623.500000000, A.D. 2024-Nov-09 00:00:00.0000, 4.775335007618743E+08, -1.392747058565635E+08, 4.453663000997706E+07,
2460630.500000000, A.D. 2024-Nov-16 00:00:00.0000, 4.801896426987936E+08, -1.300275956580073E+08, 4.310311308562565E+07,
2460637.500000000, A.D. 2024-Nov-23 00:00:00.0000, 4.826585274071329E+08, -1.207298172542305E+08, 4.165278875646663E+07,
2460644.500000000, A.D. 2024-Nov-30 00:00:00.0000, 4.849391042777074E+08, -1.113849772367321E+08, 4.018621496888661E+07,
2460651.500000000, A.D. 2024-Dec-07 00:00:00.0000, 4.870303907026761E+08, -1.019967033701813E+08, 3.870395587354032E+07,
2460658.500000000, A.D. 2024-Dec-14 00:00:00.0000, 4.889314733647647E+08, -9.256864211165917E+07, 3.720658170201314E+07,
2460665.500000000, A.D. 2024-Dec-21 00:00:00.0000, 4.906415071651435E+08, -8.310445588086966E+07, 3.569466887611326E+07,
2460672.500000000, A.D. 2024-Dec-28 00:00:00.0000, 4.921597137637822E+08, -7.360782304948832E+07, 3.416879992682365E+07,
2460679.500000000, A.D. 2025-Jan-04 00:00:00.0000, 4.934853823290556E+08, -6.408243827368984E+07, 3.262956317896809E+07,
2460686.500000000, A.D. 2025-Jan-11 00:00:00.0000, 4.946178706753050E+08, -5.453201150982480E+07, 3.107755250451181E+07,
2460693.500000000, A.D. 2025-Jan-18 00:00:00.0000, 4.955566058716124E+08, -4.496026663215736E+07, 2.951336715378082E+07,
2460700.500000000, A.D. 2025-Jan-25 00:00:00.0000, 4.963010845651200E+08, -3.537094012729277E+07, 2.793761160366314E+07,
2460707.500000000, A.D. 2025-Feb-01 00:00:00.0000, 4.968508732080302E+08, -2.576777989530035E+07, 2.635089540309206E+07,
2460714.500000000, A.D. 2025-Feb-08 00:00:00.0000, 4.972056082463481E+08, -1.615454413760336E+07, 2.475383301220381E+07,
$$EOE